{
 "generated_at": "2026-07-18T07:00:39Z",
 "sources": [
  {
   "name": "CelesTrak",
   "url": "https://celestrak.org/NORAD/elements/",
   "license": "frei verfügbar; Attribution. Ursprünglich USSPACECOM/Space-Track."
  },
  {
   "name": "GCAT (J. McDowell, planet4589.org)",
   "url": "https://planet4589.org/space/gcat/",
   "license": "CC-BY 4.0"
  }
 ],
 "satellites": [
  {
   "norad": 41556,
   "name": "ZIYUAN 3-02 (ZY 3-02)",
   "intl": "2016-033A",
   "group": "resource",
   "gcat": {
    "class": "C",
    "category": "IMG",
    "owner": "GCDX/ZZWYZ",
    "state": "CN"
   },
   "omm": {
    "OBJECT_NAME": "ZIYUAN 3-02 (ZY 3-02)",
    "OBJECT_ID": "2016-033A",
    "EPOCH": "2026-07-17T23:19:34.370112",
    "MEAN_MOTION": 15.21450066,
    "ECCENTRICITY": 0.00143764,
    "INCLINATION": 97.3824,
    "RA_OF_ASC_NODE": 274.1546,
    "ARG_OF_PERICENTER": 175.2628,
    "MEAN_ANOMALY": 184.8747,
    "EPHEMERIS_TYPE": 0,
    "CLASSIFICATION_TYPE": "U",
    "NORAD_CAT_ID": 41556,
    "ELEMENT_SET_NO": 999,
    "REV_AT_EPOCH": 56266,
    "BSTAR": 0.00012348061,
    "MEAN_MOTION_DOT": 0.00002712,
    "MEAN_MOTION_DDOT": 0
   }
  }
 ]
}
